CCSDS_OMM_VERS = 2.0
CREATION_DATE  = 
ORIGINATOR     = 

OBJECT_NAME    = STARLINK-36711
OBJECT_ID      = 2026-041A
CENTER_NAME    = EARTH
REF_FRAME      = TEME
TIME_SYSTEM    = UTC
MEAN_ELEMENT_THEORY = SGP/SGP4

EPOCH          = 2026-03-25T04:29:30.274944
MEAN_MOTION    = 15.75306082
ECCENTRICITY   = .00005886
INCLINATION    = 53.1584
RA_OF_ASC_NODE = 344.9087
ARG_OF_PERICENTER = 120.6848
MEAN_ANOMALY   = 239.4230

EPHEMERIS_TYPE = 0
CLASSIFICATION_TYPE = U
NORAD_CAT_ID   = 68040
ELEMENT_SET_NO = 999
REV_AT_EPOCH   = 366
BSTAR          = .13119804E-2
MEAN_MOTION_DOT = .20605E-2
MEAN_MOTION_DDOT = 0

CCSDS_OMM_VERS = 2.0
CREATION_DATE  = 
ORIGINATOR     = 

OBJECT_NAME    = STARLINK-36825
OBJECT_ID      = 2026-041B
CENTER_NAME    = EARTH
REF_FRAME      = TEME
TIME_SYSTEM    = UTC
MEAN_ELEMENT_THEORY = SGP/SGP4

EPOCH          = 2026-03-25T05:04:55.811712
MEAN_MOTION    = 15.81036222
ECCENTRICITY   = .00012573
INCLINATION    = 53.1587
RA_OF_ASC_NODE = 344.3340
ARG_OF_PERICENTER = 66.6081
MEAN_ANOMALY   = 293.5074

EPHEMERIS_TYPE = 0
CLASSIFICATION_TYPE = U
NORAD_CAT_ID   = 68041
ELEMENT_SET_NO = 999
REV_AT_EPOCH   = 367
BSTAR          = .19398933E-2
MEAN_MOTION_DOT = .403646E-2
MEAN_MOTION_DDOT = 0

CCSDS_OMM_VERS = 2.0
CREATION_DATE  = 
ORIGINATOR     = 

OBJECT_NAME    = STARLINK-36925
OBJECT_ID      = 2026-041C
CENTER_NAME    = EARTH
REF_FRAME      = TEME
TIME_SYSTEM    = UTC
MEAN_ELEMENT_THEORY = SGP/SGP4

EPOCH          = 2026-03-25T16:40:52.537728
MEAN_MOTION    = 15.75384031
ECCENTRICITY   = .000137
INCLINATION    = 53.1588
RA_OF_ASC_NODE = 342.3868
ARG_OF_PERICENTER = 144.2423
MEAN_ANOMALY   = 215.8689

EPHEMERIS_TYPE = 0
CLASSIFICATION_TYPE = U
NORAD_CAT_ID   = 68042
ELEMENT_SET_NO = 999
REV_AT_EPOCH   = 374
BSTAR          = .23189E-2
MEAN_MOTION_DOT = .373316E-2
MEAN_MOTION_DDOT = 0

CCSDS_OMM_VERS = 2.0
CREATION_DATE  = 
ORIGINATOR     = 

OBJECT_NAME    = STARLINK-36902
OBJECT_ID      = 2026-041D
CENTER_NAME    = EARTH
REF_FRAME      = TEME
TIME_SYSTEM    = UTC
MEAN_ELEMENT_THEORY = SGP/SGP4

EPOCH          = 2026-03-24T22:59:42.703296
MEAN_MOTION    = 15.80889848
ECCENTRICITY   = .00018148
INCLINATION    = 53.1584
RA_OF_ASC_NODE = 345.5979
ARG_OF_PERICENTER = 15.5493
MEAN_ANOMALY   = 344.5585

EPHEMERIS_TYPE = 0
CLASSIFICATION_TYPE = U
NORAD_CAT_ID   = 68043
ELEMENT_SET_NO = 999
REV_AT_EPOCH   = 363
BSTAR          = .1249351E-2
MEAN_MOTION_DOT = .253454E-2
MEAN_MOTION_DDOT = 0

CCSDS_OMM_VERS = 2.0
CREATION_DATE  = 
ORIGINATOR     = 

OBJECT_NAME    = STARLINK-36966
OBJECT_ID      = 2026-041E
CENTER_NAME    = EARTH
REF_FRAME      = TEME
TIME_SYSTEM    = UTC
MEAN_ELEMENT_THEORY = SGP/SGP4

EPOCH          = 2026-03-25T21:08:25.310400
MEAN_MOTION    = 15.75329929
ECCENTRICITY   = .0000385
INCLINATION    = 53.1587
RA_OF_ASC_NODE = 341.4108
ARG_OF_PERICENTER = 79.8799
MEAN_ANOMALY   = 280.2265

EPHEMERIS_TYPE = 0
CLASSIFICATION_TYPE = U
NORAD_CAT_ID   = 68044
ELEMENT_SET_NO = 999
REV_AT_EPOCH   = 377
BSTAR          = .16333E-2
MEAN_MOTION_DOT = .258557E-2
MEAN_MOTION_DDOT = 0

CCSDS_OMM_VERS = 2.0
CREATION_DATE  = 
ORIGINATOR     = 

OBJECT_NAME    = STARLINK-36864
OBJECT_ID      = 2026-041F
CENTER_NAME    = EARTH
REF_FRAME      = TEME
TIME_SYSTEM    = UTC
MEAN_ELEMENT_THEORY = SGP/SGP4

EPOCH          = 2026-03-25T21:07:57.132768
MEAN_MOTION    = 15.75392499
ECCENTRICITY   = .0000696
INCLINATION    = 53.1593
RA_OF_ASC_NODE = 341.4091
ARG_OF_PERICENTER = 142.6296
MEAN_ANOMALY   = 217.4773

EPHEMERIS_TYPE = 0
CLASSIFICATION_TYPE = U
NORAD_CAT_ID   = 68045
ELEMENT_SET_NO = 999
REV_AT_EPOCH   = 377
BSTAR          = .23997E-2
MEAN_MOTION_DOT = .387151E-2
MEAN_MOTION_DDOT = 0

CCSDS_OMM_VERS = 2.0
CREATION_DATE  = 
ORIGINATOR     = 

OBJECT_NAME    = STARLINK-36321
OBJECT_ID      = 2026-041G
CENTER_NAME    = EARTH
REF_FRAME      = TEME
TIME_SYSTEM    = UTC
MEAN_ELEMENT_THEORY = SGP/SGP4

EPOCH          = 2026-03-25T20:00:01.999008
MEAN_MOTION    = 15.75302110
ECCENTRICITY   = .0000822
INCLINATION    = 53.1584
RA_OF_ASC_NODE = 341.3275
ARG_OF_PERICENTER = 86.1013
MEAN_ANOMALY   = 160.8880

EPHEMERIS_TYPE = 0
CLASSIFICATION_TYPE = U
NORAD_CAT_ID   = 68046
ELEMENT_SET_NO = 999
REV_AT_EPOCH   = 497
BSTAR          = -.79988E-3
MEAN_MOTION_DOT = -.121833E-2
MEAN_MOTION_DDOT = 0

CCSDS_OMM_VERS = 2.0
CREATION_DATE  = 
ORIGINATOR     = 

OBJECT_NAME    = STARLINK-36181
OBJECT_ID      = 2026-041H
CENTER_NAME    = EARTH
REF_FRAME      = TEME
TIME_SYSTEM    = UTC
MEAN_ELEMENT_THEORY = SGP/SGP4

EPOCH          = 2026-03-25T03:29:35.000736
MEAN_MOTION    = 15.80971605
ECCENTRICITY   = .00011614
INCLINATION    = 53.1586
RA_OF_ASC_NODE = 344.6316
ARG_OF_PERICENTER = 31.0268
MEAN_ANOMALY   = 329.0823

EPHEMERIS_TYPE = 0
CLASSIFICATION_TYPE = U
NORAD_CAT_ID   = 68047
ELEMENT_SET_NO = 999
REV_AT_EPOCH   = 366
BSTAR          = .182914E-2
MEAN_MOTION_DOT = .378303E-2
MEAN_MOTION_DDOT = 0

CCSDS_OMM_VERS = 2.0
CREATION_DATE  = 
ORIGINATOR     = 

OBJECT_NAME    = STARLINK-36318
OBJECT_ID      = 2026-041J
CENTER_NAME    = EARTH
REF_FRAME      = TEME
TIME_SYSTEM    = UTC
MEAN_ELEMENT_THEORY = SGP/SGP4

EPOCH          = 2026-03-25T21:01:53.410368
MEAN_MOTION    = 15.75335567
ECCENTRICITY   = .0000911
INCLINATION    = 53.1601
RA_OF_ASC_NODE = 341.3815
ARG_OF_PERICENTER = 93.4011
MEAN_ANOMALY   = 266.7114

EPHEMERIS_TYPE = 0
CLASSIFICATION_TYPE = U
NORAD_CAT_ID   = 68048
ELEMENT_SET_NO = 999
REV_AT_EPOCH   = 377
BSTAR          = .14768E-2
MEAN_MOTION_DOT = .233062E-2
MEAN_MOTION_DDOT = 0

CCSDS_OMM_VERS = 2.0
CREATION_DATE  = 
ORIGINATOR     = 

OBJECT_NAME    = STARLINK-36885
OBJECT_ID      = 2026-041K
CENTER_NAME    = EARTH
REF_FRAME      = TEME
TIME_SYSTEM    = UTC
MEAN_ELEMENT_THEORY = SGP/SGP4

EPOCH          = 2026-03-25T21:01:24.997728
MEAN_MOTION    = 15.75277958
ECCENTRICITY   = .0001157
INCLINATION    = 53.1600
RA_OF_ASC_NODE = 341.3782
ARG_OF_PERICENTER = 129.0960
MEAN_ANOMALY   = 231.0163

EPHEMERIS_TYPE = 0
CLASSIFICATION_TYPE = U
NORAD_CAT_ID   = 68049
ELEMENT_SET_NO = 999
REV_AT_EPOCH   = 377
BSTAR          = .16163E-2
MEAN_MOTION_DOT = .255176E-2
MEAN_MOTION_DDOT = 0

CCSDS_OMM_VERS = 2.0
CREATION_DATE  = 
ORIGINATOR     = 

OBJECT_NAME    = STARLINK-36945
OBJECT_ID      = 2026-041L
CENTER_NAME    = EARTH
REF_FRAME      = TEME
TIME_SYSTEM    = UTC
MEAN_ELEMENT_THEORY = SGP/SGP4

EPOCH          = 2026-03-25T20:00:01.999008
MEAN_MOTION    = 15.76399307
ECCENTRICITY   = .0001101
INCLINATION    = 53.1597
RA_OF_ASC_NODE = 341.1737
ARG_OF_PERICENTER = 105.7052
MEAN_ANOMALY   = 215.9810

EPHEMERIS_TYPE = 0
CLASSIFICATION_TYPE = U
NORAD_CAT_ID   = 68050
ELEMENT_SET_NO = 999
REV_AT_EPOCH   = 497
BSTAR          = -.10374E-1
MEAN_MOTION_DOT = -.1476178E-1
MEAN_MOTION_DDOT = 0

CCSDS_OMM_VERS = 2.0
CREATION_DATE  = 
ORIGINATOR     = 

OBJECT_NAME    = STARLINK-35911
OBJECT_ID      = 2026-041M
CENTER_NAME    = EARTH
REF_FRAME      = TEME
TIME_SYSTEM    = UTC
MEAN_ELEMENT_THEORY = SGP/SGP4

EPOCH          = 2026-03-25T20:05:38.539968
MEAN_MOTION    = 15.80353615
ECCENTRICITY   = .0003194
INCLINATION    = 53.1592
RA_OF_ASC_NODE = 341.1212
ARG_OF_PERICENTER = 5.3348
MEAN_ANOMALY   = 354.7708

EPHEMERIS_TYPE = 0
CLASSIFICATION_TYPE = U
NORAD_CAT_ID   = 68051
ELEMENT_SET_NO = 999
REV_AT_EPOCH   = 377
BSTAR          = .21606E-2
MEAN_MOTION_DOT = .437525E-2
MEAN_MOTION_DDOT = 0

