STARLINK-36711          
1 68040U 26041A   26084.18715596  .00206050  00000+0  13120-2 0  9994
2 68040  53.1584 344.9087 0000588 120.6848 239.4230 15.75306082  3666
STARLINK-36825          
1 68041U 26041B   26084.21175708  .00403646  00000+0  19399-2 0  9998
2 68041  53.1587 344.3340 0001257  66.6081 293.5074 15.81036222  3679
STARLINK-36925          
1 68042U 26041C   26084.69505252  .00373316  00000+0  23189-2 0  9994
2 68042  53.1588 342.3868 0001370 144.2423 215.8689 15.75384031  3747
STARLINK-36902          
1 68043U 26041D   26083.95813314  .00253454  00000+0  12494-2 0  9991
2 68043  53.1584 345.5979 0001814  15.5493 344.5585 15.80889848  3637
STARLINK-36966          
1 68044U 26041E   26084.88084850  .00258557  00000+0  16333-2 0  9995
2 68044  53.1587 341.4108 0000385  79.8799 280.2265 15.75329929  3773
STARLINK-36864          
1 68045U 26041F   26084.88052237  .00387151  00000+0  23997-2 0  9997
2 68045  53.1593 341.4091 0000696 142.6296 217.4773 15.75392499  3776
STARLINK-36321          
1 68046U 26041G   26084.83335647 -.00121833  00000+0 -79988-3 0  9999
2 68046  53.1584 341.3275 0000822  86.1013 160.8880 15.75302110  4974
STARLINK-36181          
1 68047U 26041H   26084.14554399  .00378303  00000+0  18291-2 0  9994
2 68047  53.1586 344.6316 0001161  31.0268 329.0823 15.80971605  3665
STARLINK-36318          
1 68048U 26041J   26084.87631262  .00233062  00000+0  14768-2 0  9997
2 68048  53.1601 341.3815 0000911  93.4011 266.7114 15.75335567  3779
STARLINK-36885          
1 68049U 26041K   26084.87598377  .00255176  00000+0  16163-2 0  9998
2 68049  53.1600 341.3782 0001157 129.0960 231.0163 15.75277958  3772
STARLINK-36945          
1 68050U 26041L   26084.83335647 -.01476178  00000+0 -10374-1 0  9992
2 68050  53.1597 341.1737 0001101 105.7052 215.9810 15.76399307  4976
STARLINK-35911          
1 68051U 26041M   26084.83725162  .00437525  00000+0  21606-2 0  9999
2 68051  53.1592 341.1212 0003194   5.3348 354.7708 15.80353615  3779
